OSCAR 7 (AO-7)          
1 07530U 74089B   19332.18389104 -.00000041  00000-0  22765-4 0  9997
2 07530 101.7695 298.3129 0012464  34.4176  35.3253 12.53641012 60880
UOSAT 2 (UO-11)         
1 14781U 84021B   19332.09470140  .00000096  00000-0  17835-4 0  9992
2 14781  97.6005 349.0401 0009430 139.0084 221.1841 14.83123528922832
LUSAT (LO-19)           
1 20442U 90005G   19332.36569869 -.00000004  00000-0  14969-4 0  9994
2 20442  98.6670 274.2147 0012430  34.5712 325.6277 14.32938937559672
ITAMSAT (IO-26)         
1 22826U 93061D   19332.76512614 -.00000017  00000-0  11554-4 0  9998
2 22826  98.9099 325.1983 0008117 228.6445 131.4039 14.30406593365465
RADIO ROSTO (RS-15)     
1 23439U 94085A   19331.81954864 -.00000031  00000-0  32625-3 0  9995
2 23439  64.8151 213.9415 0145639  81.4686 280.2711 11.27568855 26337
JAS-2 (FO-29)           
1 24278U 96046B   19331.85748660 -.00000029  00000-0  55657-5 0  9994
2 24278  98.5618 103.4654 0350411 179.5009 180.6548 13.53094713149484
TECHSAT 1B (GO-32)      
1 25397U 98043D   19332.45996592 -.00000014  00000-0  13038-4 0  9992
2 25397  98.7058 270.7391 0000429 340.4624  19.6538 14.23675042111034
ISS (ZARYA)             
1 25544U 98067A   19332.72884222  .00001523  00000-0  34640-4 0  9995
2 25544  51.6464 265.5219 0006502 336.3155 101.0089 15.50053216200781
PCSAT (NO-44)           
1 26931U 01043C   19332.19041169 -.00000041  00000-0  16130-4 0  9999
2 26931  67.0510 304.3492 0007356 265.0775  94.9486 14.30560080948211
SAUDISAT 1C (SO-50)     
1 27607U 02058C   19332.13648464 -.00000030  00000-0  16568-4 0  9995
2 27607  64.5552 272.9356 0071346 224.6764 134.8578 14.75591721911006
CUTE-1 (CO-55)          
1 27844U 03031E   19332.02921668  .00000052  00000-0  43018-4 0  9991
2 27844  98.6840 337.8170 0008838 282.8765  77.1425 14.22207820851363
CUBESAT XI-IV (CO-57)   
1 27848U 03031J   19332.27885990  .00000031  00000-0  34136-4 0  9997
2 27848  98.6914 338.5944 0008763 295.2948  64.7321 14.21799102851246
MOZHAYETS 4 (RS-22)     
1 27939U 03042A   19332.74422850  .00000015  00000-0  11399-4 0  9992
2 27939  98.0631 105.6146 0011699 271.2427  88.7438 14.66820428864448
CUBESAT XI-V            
1 28895U 05043F   19332.14026335  .00000144  00000-0  36555-4 0  9993
2 28895  97.9821 109.5376 0016532 194.7523 165.3200 14.63715202751246
CUTE-1.7+APD II (CO-65) 
1 32785U 08021C   19331.84544686  .00000216  00000-0  28845-4 0  9998
2 32785  97.5583 323.9897 0014616  85.7481 274.5406 14.88380605627800
DELFI-C3 (DO-64)        
1 32789U 08021G   19332.41713116  .00001506  00000-0  10372-3 0  9990
2 32789  97.4455  17.0276 0010678 290.2708  69.7372 15.07286390631474
SEEDS II (CO-66)        
1 32791U 08021J   19331.99244601  .00000281  00000-0  33817-4 0  9992
2 32791  97.5323 330.2347 0014689  60.6637 299.6047 14.90920021628293
YUBILEINY (RS-30)       
1 32953U 08025A   19332.70489708  .00000021  00000-0  75656-4 0  9994
2 32953  82.5067  43.3827 0020236 133.0718 227.2060 12.43092441522564
KKS-1 (KISEKI)          
1 33499U 09002H   19332.84025197  .00000085  00000-0  20490-4 0  9995
2 33499  98.3352 176.6586 0010122  52.0432 308.1689 14.75483423583283
SWISSCUBE               
1 35932U 09051B   19332.70729851  .00000133  00000-0  41021-4 0  9993
2 35932  98.5996 143.6110 0008109  32.9242 327.2458 14.56334276540502
BEESAT-1                
1 35933U 09051C   19332.76931994  .00000099  00000-0  33339-4 0  9997
2 35933  98.6009 145.4970 0006539  46.6776 313.4964 14.56417136540621
ITUPSAT1                
1 35935U 09051E   19331.75274714  .00000103  00000-0  34894-4 0  9990
2 35935  98.6117 144.6729 0008859  45.4462 314.7457 14.55570406540217
XIWANG-1 (HOPE-1)       
1 36122U 09072B   19332.76562171 -.00000028  00000-0  36427-4 0  9992
2 36122 100.0805 327.5227 0007289 333.1109  26.9626 13.16352448478337
JUGNU                   
1 37839U 11058B   19332.40895687  .00000325  00000-0  31648-4 0  9996
2 37839  19.9618  68.0255 0018914 321.4899 102.3003 14.12665700420299
SRMSAT                  
1 37841U 11058D   19332.77565740  .00000297  00000-0  17964-4 0  9996
2 37841  19.9707 125.9527 0011790 188.0499 302.5397 14.10644339419745
M-CUBED & EXP-1 PRIME   
1 37855U 11061F   19332.41588955  .00001876  00000-0  10059-3 0  9990
2 37855 101.7234 311.6215 0172381 314.3831  44.3370 15.05834029441267
STRAND-1                
1 39090U 13009E   19332.09860601  .00000047  00000-0  31598-4 0  9993
2 39090  98.4706 175.2139 0009422 159.9374 200.2184 14.35107159353688
SOMP                    
1 39134U 13015E   19332.75849569  .00000899  00000-0  49705-4 0  9996
2 39134  64.8624 211.9983 0037851 276.9713  82.7110 15.20536681365385
BEESAT-3                
1 39135U 13015F   19332.44602711  .00000904  00000-0  53671-4 0  9993
2 39135  64.8668 233.6229 0041201 280.6489  78.9998 15.17761906364942
BEESAT-2                
1 39136U 13015G   19332.80892891  .00000983  00000-0  58784-4 0  9991
2 39136  64.8692 236.7556 0030478 285.8878  73.8889 15.17179129364910
ZACUBE-1 (TSHEPISOSAT)  
1 39417U 13066B   19332.78709910  .00000183  00000-0  29339-4 0  9991
2 39417  97.5614 337.1165 0057979 218.1048 141.6059 14.81184656325184
GOMX-1                  
1 39430U 13066Q   19332.74645663  .00000217  00000-0  47860-4 0  9993
2 39430  97.7669 278.7269 0152253 100.0149 261.8274 14.59314835320388
CUBEBUG-2 (LO-74)       
1 39440U 13066AA  19332.53257107  .00000197  00000-0  34481-4 0  9995
2 39440  97.6131 321.4471 0078751 276.1539  83.0704 14.75923330323997
FUNCUBE-1 (AO-73)       
1 39444U 13066AE  19332.08930733  .00000252  00000-0  37290-4 0  9995
2 39444  97.5578 338.5516 0057215 213.4610 146.2985 14.82017539323985
UWE-3                   
1 39446U 13066AG  19332.73160589  .00000184  00000-0  31167-4 0  9994
2 39446  97.5865 328.7996 0068601 247.5878 111.8057 14.78457320323354
SPROUT                  
1 39770U 14029E   19332.76575945  .00000672  00000-0  80185-4 0  9999
2 39770  97.8911  75.0762 0007896 272.0267  88.0023 14.87520432299070
UNISAT-6                
1 40012U 14033C   19331.84968172  .00000191  00000-0  35965-4 0  9993
2 40012  97.7330 191.2750 0057089 295.2779  64.2522 14.74037826292571
DUCHIFAT-1              
1 40021U 14033M   19332.05311018  .00000337  00000-0  40206-4 0  9994
2 40021  97.9303 257.2153 0011644 231.6577 128.3594 14.90748019295733
QB50P1                  
1 40025U 14033R   19332.32742926  .00000313  00000-0  39260-4 0  9996
2 40025  97.9083 251.7441 0011112 242.1021 117.9071 14.89028378295520
NUDT-PHONESAT           
1 40900U 15049B   19332.70748660  .00002537  00000-0  10967-3 0  9991
2 40900  97.4351 340.4824 0012119 339.8761  79.0005 15.23334721232470
ZDPS 2A                 
1 40901U 15049C   19332.71085557  .00000897  00000-0  47460-4 0  9998
2 40901  97.4612 336.2130 0013508   2.7243  85.6362 15.17952887231962
ZDPS 2B                 
1 40902U 15049D   19332.69318786  .00001356  00000-0  70208-4 0  9996
2 40902  97.4571 333.5634 0013349   0.4069 124.8458 15.17849439231937
XW-2A                   
1 40903U 15049E   19332.72288337  .00002015  00000-0  48621-4 0  9996
2 40903  97.3178  16.2669 0011676 276.0545 204.6598 15.42369482235371
KAITUO 1A               
1 40904U 15049F   19332.70019681  .00000400  00000-0  24583-4 0  9996
2 40904  97.4715 331.9740 0014927   9.2945 110.1623 15.15517791231687
2015-049G               
1 40905U 15049G   19332.69753743  .00000195  00000-0  14190-4 0  9993
2 40905  97.4767 329.3564 0015869   4.5026 105.1727 15.14400343231541
XW-2C                   
1 40906U 15049H   19332.73216343  .00000934  00000-0  52222-4 0  9998
2 40906  97.4715 332.1667 0014694   0.4624 114.0662 15.15842765231697
XW-2D                   
1 40907U 15049J   19332.69030766  .00000776  00000-0  43732-4 0  9997
2 40907  97.4699 331.8105 0014019 358.0601 123.8738 15.16044451231701
LILACSAT-2              
1 40908U 15049K   19332.66355814  .00000680  00000-0  41063-4 0  9998
2 40908  97.4839 330.4152 0015975   5.5819 105.7655 15.13904241231461
XW-2F                   
1 40910U 15049M   19332.69040016  .00001178  00000-0  61919-4 0  9994
2 40910  97.4652 334.0649 0014328 349.6517 120.7819 15.17563437231737
XW-2B                   
1 40911U 15049N   19332.66266028  .00001018  00000-0  56409-4 0  9996
2 40911  97.4718 332.4600 0013984 359.2703 112.2872 15.15975240231597
KAITUO 1B               
1 40912U 15049P   19332.66656461  .00001553  00000-0  75365-4 0  9997
2 40912  97.4501 337.9390 0013949 329.2647 123.7733 15.19911219232065
TIANWANG 1C (TW-1C)     
1 40926U 15051B   19332.74860074  .00014534  00000-0  18587-3 0  9996
2 40926  97.1152  18.8690 0008556 118.7792  20.0042 15.59282710235535
TIANWANG 1A (TW-1A)     
1 40928U 15051D   19332.86997919  .00002798  00000-0  68405-4 0  9994
2 40928  97.1308   0.5045 0010421 191.4366 342.1563 15.41593115234306
LAPAN-A2                
1 40931U 15052B   19324.69785557 -.00020420  00000-0 -29507-2 0  9996
2 40931   5.9963  31.2247 0013118 192.9224 166.9491 14.76583141224210
E-ST@R-II               
1 41459U 16025D   19332.69583181  .00002100  00000-0  10988-3 0  9998
2 41459  98.0999  67.4043 0166886 170.1241 190.3337 15.05853688197073
AAUSAT 4                
1 41460U 16025E   19332.72643924  .00003475  00000-0  17412-3 0  9991
2 41460  98.0985  69.1155 0157113 161.1078 199.5970 15.07924296197232
NUSAT-1 (FRESCO)        
1 41557U 16033B   19332.78203065  .00001154  00000-0  45463-4 0  9991
2 41557  97.4133  59.3191 0015343  82.8932 277.4051 15.27564284194988
BEESAT-4                
1 41619U 16040W   19332.16280224  .00001461  00000-0  64064-4 0  9991
2 41619  97.3486  31.2137 0011687 164.3236 195.8365 15.23498236178595
CAS-2T & KS-1Q          
1 41847U 16066G   19332.70760627  .00000072  00000-0  20462-4 0  9993
2 41847  98.6854  15.8662 0366852 109.8040 254.3084 14.38023265160429
NAYIF-1 (EO-88)         
1 42017U 17008BX  19332.67803154  .00001407  00000-0  57660-4 0  9992
2 42017  97.3861  37.9649 0005149 327.7939  32.2985 15.25934059154773
MAX VALIER SAT          
1 42778U 17036P   19332.43170951  .00000891  00000-0  41633-4 0  9992
2 42778  97.3347  26.3479 0012663  20.6510 339.5236 15.22273660134997
RADFXSAT (FOX-1B)       
1 43017U 17073E   19332.75524063  .00000878  00000-0  73879-4 0  9994
2 43017  97.7243 247.7366 0257539 347.7209  11.7801 14.78719261109359
FOX-1D (AO-92)          
1 43137U 18004AC  19332.70509411  .00000936  00000-0  41916-4 0  9999
2 43137  97.4709  40.0062 0010441  51.4707 308.7464 15.23740512104313
ES'HAIL 2               
1 43700U 18090A   19331.76938142  .00000143  00000-0  00000+0 0  9996
2 43700   0.0168   2.7073 0001269 271.9745  94.4908  1.00272240  3929
FOX-1CLIFF (AO-95)      
1 43770U 18099N   19332.43331836  .00000240  00000-0  27220-4 0  9990
2 43770  97.7304  42.0906 0015495 146.7043 213.5155 14.94862539 53734
ITASAT 1                
1 43786U 18099AE  19332.74497627  .00000667  00000-0  65770-4 0  9997
2 43786  97.7317  42.6714 0016315 140.4038 219.8377 14.95218216 53794
JY1SAT (JO-97)          
1 43803U 18099AX  19332.78150540 -.00000109  00000-0 -46003-5 0  9993
2 43803  97.7275  42.5798 0016112 140.9641 219.2746 14.95368926 53796
PSAT2 (NO-104)          
1 44354U 19036R   19331.87165869  .00011771  00000-0  17860-3 0  9998
2 44354  28.5333 267.2725 0379440 313.6076  43.3614 14.99563303 23346
BRICSAT2 (NO-103)       
1 44355U 19036S   19331.18397084  .00021721  00000-0  32945-3 0  9996
2 44355  28.5337 270.4740 0371454 308.4202  48.3589 15.01495146 23242
JAISAT-1                
1 44419U 19038F   19332.39290898  .00000799  00000-0  49439-4 0  9997
2 44419  97.5113 291.7705 0023334 105.8019 254.5787 15.12447109 22051
